     2.11           N: GPS NAV DATA                         RINEX VERSION / TYPE
teqc  2019Feb25                         20221121 12:23:12UTCPGM / RUN BY / DATE
OSX ker:10.11.6|Core i5|gcc 4.3 -m64|OSX ker:10.10+|=+      COMMENT
    7.4506D-09  2.2352D-08 -5.9605D-08 -1.1921D-07          ION ALPHA
    8.6016D+04  8.1920D+04 -1.3107D+05 -5.2429D+05          ION BETA
    9.313225746155D-10 2.664535259100D-15   503808     1531 DELTA-UTC: A0,A1,T,W
                                                            END OF HEADER
30 09  5 14 22  0  0.0 1.462856307626D-04 2.728484105319D-12 0.000000000000D+00
    7.700000000000D+01-7.153125000000D+01 4.693052627337D-09 7.690417825228D-01
   -3.712251782417D-06 1.135390053969D-02 8.674338459969D-06 5.153602920532D+03
    4.248000000000D+05-1.676380634308D-07-2.284038572152D+00-2.235174179077D-08
    9.518970802771D-01 2.123125000000D+02 1.416244434277D+00-8.240343243372D-09
   -3.071556514086D-11 1.000000000000D+00 1.531000000000D+03 0.000000000000D+00
    2.000000000000D+00 0.000000000000D+00-8.381903171539D-09 7.700000000000D+01
    4.176180000000D+05 4.000000000000D+00
31 09  5 14 22  0  0.0-6.023282185197D-05-9.094947017729D-13 0.000000000000D+00
    7.500000000000D+01-5.318750000000D+01 4.438399162855D-09-3.121455755927D+00
   -2.520158886909D-06 7.071311934851D-03 4.174187779427D-06 5.153711803436D+03
    4.248000000000D+05 1.173466444016D-07 2.992977717124D+00 1.695007085800D-07
    9.728793792798D-01 3.056250000000D+02-1.143520055697D+00-8.021762710044D-09
   -5.714523747137D-11 1.000000000000D+00 1.531000000000D+03 0.000000000000D+00
    2.000000000000D+00 0.000000000000D+00-1.303851604462D-08 7.500000000000D+01
    4.176180000000D+05 4.000000000000D+00
12 09  5 14 22  0  0.0-2.811350859702D-04 5.229594535194D-12 0.000000000000D+00
    3.200000000000D+01-7.768750000000D+01 4.176959701423D-09-2.906609586516D+00
   -4.056841135025D-06 3.352855914272D-03 8.748844265938D-06 5.153667789459D+03
    4.248000000000D+05-1.490116119385D-08-2.236482360387D+00 4.656612873077D-08
    9.668229481708D-01 2.135937500000D+02-7.217225108224D-01-7.763180510486D-09
    2.607251459631D-11 1.000000000000D+00 1.531000000000D+03 0.000000000000D+00
    2.000000000000D+00 0.000000000000D+00-1.164153218269D-08 3.200000000000D+01
    4.176180000000D+05 4.000000000000D+00
32 09  5 14 22  0  0.0 2.614986151457D-04-5.229594535194D-12 0.000000000000D+00
    3.000000000000D+01 6.553125000000D+01 4.140172454801D-09-2.199018766324D+00
    3.702938556671D-06 1.333583926316D-02 8.083879947662D-06 5.153576372147D+03
    4.248000000000D+05 7.636845111847D-08 9.852452341615D-01 2.924352884293D-07
    9.642667753188D-01 2.223750000000D+02-1.167687513569D+00-7.696392014191D-09
   -7.500312418118D-12 1.000000000000D+00 1.531000000000D+03 0.000000000000D+00
    2.000000000000D+00 0.000000000000D+00-3.259629011154D-09 3.000000000000D+01
    4.176180000000D+05 4.000000000000D+00
20 09  5 14 22  0  0.0 8.263671770692D-05-1.023181539495D-12 0.000000000000D+00
    7.300000000000D+01 5.365625000000D+01 4.765912805113D-09 1.216939774038D+00
    2.766028046608D-06 3.991050762124D-03 8.255243301392D-06 5.153614665985D+03
    4.248000000000D+05-5.587935447693D-08 8.759463717566D-01-1.117587089539D-08
    9.423350161502D-01 2.075625000000D+02 1.356442533185D+00-8.173554747077D-09
   -6.928860043404D-11 1.000000000000D+00 1.531000000000D+03 0.000000000000D+00
    2.000000000000D+00 0.000000000000D+00-6.519258022308D-09 7.300000000000D+01
    4.176180000000D+05 4.000000000000D+00
 4 09  5 14 22  0  0.0-9.114434942603D-05-1.546140993014D-11 0.000000000000D+00
    3.600000000000D+01 5.093750000000D+00 5.028780897481D-09 1.626814870112D+00
    3.185123205185D-07 8.595662191510D-03 7.243826985359D-06 5.153733362198D+03
    4.248000000000D+05-1.080334186554D-07-1.414808043291D-01 3.539025783539D-08
    9.408868706177D-01 2.321562500000D+02 4.864733740601D-01-8.218556621586D-09
   -3.035840740667D-10 1.000000000000D+00 1.531000000000D+03 0.000000000000D+00
    2.000000000000D+00 0.000000000000D+00-6.053596735001D-09 3.600000000000D+01
    4.176180000000D+05 4.000000000000D+00
14 09  5 14 22  0  0.0-1.106131821871D-04 5.911715561524D-12 0.000000000000D+00
    6.000000000000D+01 5.000000000000D+01 4.096599211229D-09-7.941524904732D-01
    2.745538949966D-06 4.399264696985D-03 5.042180418968D-06 5.153603727341D+03
    4.248000000000D+05-4.470348358154D-08 1.985459192402D+00 9.126961231232D-08
    9.882463871945D-01 2.981250000000D+02-2.146121243158D+00-7.943902323989D-09
    1.410773050075D-10 1.000000000000D+00 1.531000000000D+03 0.000000000000D+00
    2.000000000000D+00 0.000000000000D+00-9.313225746155D-09 6.000000000000D+01
    4.176180000000D+05 4.000000000000D+00
29 09  5 14 21 59 44.0 2.007465809584D-05 3.865352482535D-12 0.000000000000D+00
    7.000000000000D+00-5.531250000000D+00 4.560547107950D-09 2.371083415016D+00
   -3.036111593246D-07 3.431801451370D-03 7.586553692818D-06 5.153680742264D+03
    4.247840000000D+05 5.960464477539D-08-1.168834413548D+00 2.980232238770D-08
    9.595860387245D-01 2.310625000000D+02-1.328669740039D+00-7.866041937935D-09
    1.589351917173D-10 1.000000000000D+00 1.531000000000D+03 0.000000000000D+00
    2.000000000000D+00 0.000000000000D+00-8.847564458847D-09 7.000000000000D+00
    4.192560000000D+05 4.000000000000D+00
 2 09  5 14 22  0  0.0 1.542139798403D-04 5.684341886081D-13 0.000000000000D+00
    4.800000000000D+01 4.687500000000D-01 4.955920719705D-09-1.238576559182D+00
   -9.313225746155D-09 9.055877919309D-03 7.154420018196D-06 5.153648292542D+03
    4.248000000000D+05-1.434236764908D-07-1.598632331168D-01-1.322478055954D-07
    9.416650713528D-01 2.334687500000D+02 2.810422011826D+00-8.154982544899D-09
   -5.285934466102D-11 1.000000000000D+00 1.531000000000D+03 0.000000000000D+00
    2.000000000000D+00 0.000000000000D+00-1.722946763039D-08 4.800000000000D+01
    4.202460000000D+05 4.000000000000D+00
23 09  5 14 22  0  0.0 3.900048322976D-04 1.136868377216D-13 0.000000000000D+00
    2.600000000000D+01 5.687500000000D+01 4.481258090958D-09-1.375936067272D+00
    2.706423401833D-06 6.062835454941D-03 4.388391971588D-06 5.153611320496D+03
    4.248000000000D+05 2.235174179077D-08 1.953154655017D+00-5.960464477539D-08
    9.702388589601D-01 3.022500000000D+02 2.878408088153D+00-8.152482440760D-09
    2.307238962907D-10 1.000000000000D+00 1.531000000000D+03 0.000000000000D+00
    2.000000000000D+00 0.000000000000D+00-2.002343535423D-08 2.600000000000D+01
    4.205760000000D+05 4.000000000000D+00
16 09  5 14 22  0  0.0 5.102576687932D-05-3.296918293927D-12 0.000000000000D+00
    5.300000000000D+01-6.075000000000D+01 4.240890935844D-09 8.910849932896D-01
   -3.255903720856D-06 5.336834467016D-03 8.033588528633D-06 5.153547925949D+03
    4.248000000000D+05 8.568167686462D-08-2.219552288873D+00 1.862645149231D-09
    9.682715252642D-01 2.231250000000D+02-3.679796897054D-01-7.876399512226D-09
   -4.285892810353D-11 1.000000000000D+00 1.531000000000D+03 0.000000000000D+00
    2.000000000000D+00 0.000000000000D+00-9.778887033463D-09 5.300000000000D+01
    4.227360000000D+05 4.000000000000D+00
13 09  5 14 22  0  0.0 2.970877103508D-04 9.094947017729D-13 0.000000000000D+00
    3.100000000000D+01 5.396875000000D+01 3.984094524957D-09-6.024011059555D-01
    2.738088369370D-06 4.123263410293D-03 4.729256033897D-06 5.153709121704D+03
    4.248000000000D+05-1.676380634308D-08 2.004893728466D+00 3.166496753693D-08
    9.947354646220D-01 3.126250000000D+02 1.560414414118D+00-7.924615806343D-09
    1.753644474903D-10 1.000000000000D+00 1.531000000000D+03 0.000000000000D+00
    2.000000000000D+00 0.000000000000D+00-1.117587089539D-08 3.100000000000D+01
    4.246560000000D+05 4.000000000000D+00
29 09  5 14 23 59 44.0 2.010259777308D-05 3.865352482535D-12 0.000000000000D+00
    8.000000000000D+00-4.875000000000D+00 4.546617956316D-09-2.861983277823D+00
   -2.756714820862D-07 3.431188641116D-03 7.858499884605D-06 5.153681945801D+03
    4.319840000000D+05 3.725290298462D-08-1.168891047495D+00 4.097819328308D-08
    9.595871798006D-01 2.264062500000D+02-1.328611921128D+00-7.859255940985D-09
    1.646497154644D-10 1.000000000000D+00 1.531000000000D+03 0.000000000000D+00
    2.000000000000D+00 0.000000000000D+00-8.847564458847D-09 8.000000000000D+00
    4.248180000000D+05 4.000000000000D+00
31 09  5 14 23 59 44.0-6.023701280355D-05-9.094947017729D-13 0.000000000000D+00
    2.000000000000D+00-4.859375000000D+01 4.483758195098D-09-2.073652456680D+00
   -2.358108758926D-06 7.071866304614D-03 4.174187779427D-06 5.153710790634D+03
    4.319840000000D+05-3.166496753693D-08 2.992920095707D+00 2.123415470123D-07
    9.728790179390D-01 3.064375000000D+02-1.143499367110D+00-8.050335328780D-09
   -3.000124967247D-11 1.000000000000D+00 1.531000000000D+03 0.000000000000D+00
    2.000000000000D+00 0.000000000000D+00-1.303851604462D-08 2.000000000000D+00
    4.284660000000D+05 4.000000000000D+00
